<?xml version="1.0" encoding="UTF-8"?>
<gpx version="1.1" creator="magellan-test">
  <metadata><name>Mist Trail Test</name></metadata>
  <wpt lat="37.7272" lon="-119.5432"><name>Vernal Fall</name></wpt>
  <trk><name>Mist Trail Test</name><trkseg>
      <trkpt lat="37.732500" lon="-119.558200"></trkpt>
      <trkpt lat="37.732525" lon="-119.557950"></trkpt>
      <trkpt lat="37.732549" lon="-119.557700"></trkpt>
      <trkpt lat="37.732573" lon="-119.557453"></trkpt>
      <trkpt lat="37.732595" lon="-119.557208"></trkpt>
      <trkpt lat="37.732616" lon="-119.556967"></trkpt>
      <trkpt lat="37.732635" lon="-119.556730"></trkpt>
      <trkpt lat="37.732651" lon="-119.556498"></trkpt>
      <trkpt lat="37.732665" lon="-119.556272"></trkpt>
      <trkpt lat="37.732675" lon="-119.556053"></trkpt>
      <trkpt lat="37.732682" lon="-119.555841"></trkpt>
      <trkpt lat="37.732686" lon="-119.555636"></trkpt>
      <trkpt lat="37.732685" lon="-119.555439"></trkpt>
      <trkpt lat="37.732680" lon="-119.555251"></trkpt>
      <trkpt lat="37.732670" lon="-119.555071"></trkpt>
      <trkpt lat="37.732656" lon="-119.554900"></trkpt>
      <trkpt lat="37.732636" lon="-119.554738"></trkpt>
      <trkpt lat="37.732612" lon="-119.554584"></trkpt>
      <trkpt lat="37.732581" lon="-119.554439"></trkpt>
      <trkpt lat="37.732545" lon="-119.554302"></trkpt>
      <trkpt lat="37.732504" lon="-119.554174"></trkpt>
      <trkpt lat="37.732457" lon="-119.554053"></trkpt>
      <trkpt lat="37.732404" lon="-119.553939"></trkpt>
      <trkpt lat="37.732345" lon="-119.553831"></trkpt>
      <trkpt lat="37.732280" lon="-119.553730"></trkpt>
      <trkpt lat="37.732210" lon="-119.553633"></trkpt>
      <trkpt lat="37.732133" lon="-119.553541"></trkpt>
      <trkpt lat="37.732051" lon="-119.553453"></trkpt>
      <trkpt lat="37.731964" lon="-119.553367"></trkpt>
      <trkpt lat="37.731871" lon="-119.553283"></trkpt>
      <trkpt lat="37.731773" lon="-119.553200"></trkpt>
      <trkpt lat="37.731669" lon="-119.553117"></trkpt>
      <trkpt lat="37.731561" lon="-119.553033"></trkpt>
      <trkpt lat="37.731448" lon="-119.552947"></trkpt>
      <trkpt lat="37.731331" lon="-119.552859"></trkpt>
      <trkpt lat="37.731210" lon="-119.552767"></trkpt>
      <trkpt lat="37.731085" lon="-119.552670"></trkpt>
      <trkpt lat="37.730957" lon="-119.552569"></trkpt>
      <trkpt lat="37.730826" lon="-119.552461"></trkpt>
      <trkpt lat="37.730691" lon="-119.552347"></trkpt>
      <trkpt lat="37.730555" lon="-119.552226"></trkpt>
      <trkpt lat="37.730416" lon="-119.552098"></trkpt>
      <trkpt lat="37.730276" lon="-119.551961"></trkpt>
      <trkpt lat="37.730135" lon="-119.551816"></trkpt>
      <trkpt lat="37.729993" lon="-119.551662"></trkpt>
      <trkpt lat="37.729850" lon="-119.551500"></trkpt>
      <trkpt lat="37.729707" lon="-119.551329"></trkpt>
      <trkpt lat="37.729565" lon="-119.551149"></trkpt>
      <trkpt lat="37.729424" lon="-119.550961"></trkpt>
      <trkpt lat="37.729284" lon="-119.550764"></trkpt>
      <trkpt lat="37.729145" lon="-119.550559"></trkpt>
      <trkpt lat="37.729009" lon="-119.550347"></trkpt>
      <trkpt lat="37.728874" lon="-119.550128"></trkpt>
      <trkpt lat="37.728743" lon="-119.549902"></trkpt>
      <trkpt lat="37.728615" lon="-119.549670"></trkpt>
      <trkpt lat="37.728490" lon="-119.549433"></trkpt>
      <trkpt lat="37.728369" lon="-119.549192"></trkpt>
      <trkpt lat="37.728252" lon="-119.548947"></trkpt>
      <trkpt lat="37.728139" lon="-119.548700"></trkpt>
      <trkpt lat="37.728031" lon="-119.548450"></trkpt>
      <trkpt lat="37.727927" lon="-119.548200"></trkpt>
      <trkpt lat="37.727829" lon="-119.547950"></trkpt>
      <trkpt lat="37.727736" lon="-119.547700"></trkpt>
      <trkpt lat="37.727649" lon="-119.547453"></trkpt>
      <trkpt lat="37.727567" lon="-119.547208"></trkpt>
      <trkpt lat="37.727490" lon="-119.546967"></trkpt>
      <trkpt lat="37.727420" lon="-119.546730"></trkpt>
      <trkpt lat="37.727355" lon="-119.546498"></trkpt>
      <trkpt lat="37.727296" lon="-119.546272"></trkpt>
      <trkpt lat="37.727243" lon="-119.546053"></trkpt>
      <trkpt lat="37.727196" lon="-119.545841"></trkpt>
      <trkpt lat="37.727155" lon="-119.545636"></trkpt>
      <trkpt lat="37.727119" lon="-119.545439"></trkpt>
      <trkpt lat="37.727088" lon="-119.545251"></trkpt>
      <trkpt lat="37.727064" lon="-119.545071"></trkpt>
      <trkpt lat="37.727044" lon="-119.544900"></trkpt>
      <trkpt lat="37.727030" lon="-119.544738"></trkpt>
      <trkpt lat="37.727020" lon="-119.544584"></trkpt>
      <trkpt lat="37.727015" lon="-119.544439"></trkpt>
      <trkpt lat="37.727014" lon="-119.544302"></trkpt>
      <trkpt lat="37.727018" lon="-119.544174"></trkpt>
      <trkpt lat="37.727025" lon="-119.544053"></trkpt>
      <trkpt lat="37.727035" lon="-119.543939"></trkpt>
      <trkpt lat="37.727049" lon="-119.543831"></trkpt>
      <trkpt lat="37.727065" lon="-119.543730"></trkpt>
      <trkpt lat="37.727084" lon="-119.543633"></trkpt>
      <trkpt lat="37.727105" lon="-119.543541"></trkpt>
      <trkpt lat="37.727127" lon="-119.543453"></trkpt>
      <trkpt lat="37.727151" lon="-119.543367"></trkpt>
      <trkpt lat="37.727175" lon="-119.543283"></trkpt>
      <trkpt lat="37.727200" lon="-119.543200"></trkpt>
  </trkseg></trk>
</gpx>