<?xml version="1.0"?><gpx version="1.1" creator="t"><trk><name>Valley Loop &amp; Falls</name><trkseg><trkpt lat="37.730500" lon="-119.562000"><ele>1200</ele></trkpt>
<trkpt lat="37.731238" lon="-119.561395"><ele>1218</ele></trkpt>
<trkpt lat="37.731958" lon="-119.560877"><ele>1236</ele></trkpt>
<trkpt lat="37.732643" lon="-119.560500"><ele>1254</ele></trkpt>
<trkpt lat="37.733280" lon="-119.560307"><ele>1271</ele></trkpt>
<trkpt lat="37.733854" lon="-119.560326"><ele>1289</ele></trkpt>
<trkpt lat="37.734357" lon="-119.560566"><ele>1306</ele></trkpt>
<trkpt lat="37.734781" lon="-119.561018"><ele>1324</ele></trkpt>
<trkpt lat="37.735125" lon="-119.561653"><ele>1341</ele></trkpt>
<trkpt lat="37.735389" lon="-119.562428"><ele>1357</ele></trkpt>
<trkpt lat="37.735578" lon="-119.563287"><ele>1374</ele></trkpt>
<trkpt lat="37.735700" lon="-119.564170"><ele>1390</ele></trkpt>
<trkpt lat="37.735767" lon="-119.565016"><ele>1405</ele></trkpt>
<trkpt lat="37.735792" lon="-119.565769"><ele>1420</ele></trkpt>
<trkpt lat="37.735790" lon="-119.566385"><ele>1435</ele></trkpt>
<trkpt lat="37.735778" lon="-119.566836"><ele>1449</ele></trkpt>
<trkpt lat="37.735771" lon="-119.567112"><ele>1463</ele></trkpt>
<trkpt lat="37.735784" lon="-119.567222"><ele>1476</ele></trkpt>
<trkpt lat="37.735832" lon="-119.567192"><ele>1489</ele></trkpt>
<trkpt lat="37.735926" lon="-119.567065"><ele>1501</ele></trkpt>
<trkpt lat="37.736074" lon="-119.566895"><ele>1513</ele></trkpt>
<trkpt lat="37.736281" lon="-119.566741"><ele>1524</ele></trkpt>
<trkpt lat="37.736549" lon="-119.566663"><ele>1534</ele></trkpt>
<trkpt lat="37.736875" lon="-119.566714"><ele>1543</ele></trkpt>
<trkpt lat="37.737253" lon="-119.566938"><ele>1552</ele></trkpt>
<trkpt lat="37.737673" lon="-119.567360"><ele>1560</ele></trkpt>
<trkpt lat="37.738125" lon="-119.567989"><ele>1568</ele></trkpt>
<trkpt lat="37.738592" lon="-119.568814"><ele>1574</ele></trkpt>
<trkpt lat="37.739060" lon="-119.569807"><ele>1580</ele></trkpt>
<trkpt lat="37.739509" lon="-119.570923"><ele>1586</ele></trkpt>
<trkpt lat="37.739925" lon="-119.572107"><ele>1590</ele></trkpt>
<trkpt lat="37.740291" lon="-119.573297"><ele>1594</ele></trkpt>
<trkpt lat="37.740591" lon="-119.574431"><ele>1596</ele></trkpt>
<trkpt lat="37.740815" lon="-119.575453"><ele>1598</ele></trkpt>
<trkpt lat="37.740953" lon="-119.576319"><ele>1600</ele></trkpt>
<trkpt lat="37.741000" lon="-119.577000"><ele>1600</ele></trkpt>
<trkpt lat="37.740953" lon="-119.577485"><ele>1600</ele></trkpt>
<trkpt lat="37.740815" lon="-119.577783"><ele>1598</ele></trkpt>
<trkpt lat="37.740591" lon="-119.577921"><ele>1596</ele></trkpt>
<trkpt lat="37.740291" lon="-119.577939"><ele>1594</ele></trkpt>
<trkpt lat="37.739925" lon="-119.577893"><ele>1590</ele></trkpt>
<trkpt lat="37.739509" lon="-119.577840"><ele>1586</ele></trkpt>
<trkpt lat="37.739060" lon="-119.577842"><ele>1580</ele></trkpt>
<trkpt lat="37.738592" lon="-119.577950"><ele>1574</ele></trkpt>
<trkpt lat="37.738125" lon="-119.578207"><ele>1568</ele></trkpt>
<trkpt lat="37.737673" lon="-119.578640"><ele>1560</ele></trkpt>
<trkpt lat="37.737253" lon="-119.579258"><ele>1552</ele></trkpt>
<trkpt lat="37.736875" lon="-119.580050"><ele>1543</ele></trkpt>
<trkpt lat="37.736549" lon="-119.580986"><ele>1534</ele></trkpt>
<trkpt lat="37.736281" lon="-119.582023"><ele>1524</ele></trkpt>
<trkpt lat="37.736074" lon="-119.583105"><ele>1513</ele></trkpt>
<trkpt lat="37.735926" lon="-119.584171"><ele>1501</ele></trkpt>
<trkpt lat="37.735832" lon="-119.585159"><ele>1489</ele></trkpt>
<trkpt lat="37.735784" lon="-119.586014"><ele>1476</ele></trkpt>
<trkpt lat="37.735771" lon="-119.586692"><ele>1463</ele></trkpt>
<trkpt lat="37.735778" lon="-119.587164"><ele>1449</ele></trkpt>
<trkpt lat="37.735790" lon="-119.587419"><ele>1435</ele></trkpt>
<trkpt lat="37.735792" lon="-119.587467"><ele>1420</ele></trkpt>
<trkpt lat="37.735767" lon="-119.587335"><ele>1405</ele></trkpt>
<trkpt lat="37.735700" lon="-119.587066"><ele>1390</ele></trkpt>
<trkpt lat="37.735578" lon="-119.586713"><ele>1374</ele></trkpt>
<trkpt lat="37.735389" lon="-119.586336"><ele>1357</ele></trkpt>
<trkpt lat="37.735125" lon="-119.585995"><ele>1341</ele></trkpt>
<trkpt lat="37.734781" lon="-119.585746"><ele>1324</ele></trkpt>
<trkpt lat="37.734357" lon="-119.585629"><ele>1306</ele></trkpt>
<trkpt lat="37.733854" lon="-119.585674"><ele>1289</ele></trkpt>
<trkpt lat="37.733280" lon="-119.585889"><ele>1271</ele></trkpt>
<trkpt lat="37.732643" lon="-119.586264"><ele>1254</ele></trkpt>
<trkpt lat="37.731958" lon="-119.586772"><ele>1236</ele></trkpt>
<trkpt lat="37.731238" lon="-119.587369"><ele>1218</ele></trkpt>
<trkpt lat="37.730500" lon="-119.588000"><ele>1200</ele></trkpt>
</trkseg><trkseg><trkpt lat="37.729762" lon="-119.588605"><ele>1218</ele></trkpt>
<trkpt lat="37.729042" lon="-119.589123"><ele>1236</ele></trkpt>
<trkpt lat="37.728357" lon="-119.589500"><ele>1254</ele></trkpt>
<trkpt lat="37.727720" lon="-119.589693"><ele>1271</ele></trkpt>
<trkpt lat="37.727146" lon="-119.589674"><ele>1289</ele></trkpt>
<trkpt lat="37.726643" lon="-119.589434"><ele>1306</ele></trkpt>
<trkpt lat="37.726219" lon="-119.588982"><ele>1324</ele></trkpt>
<trkpt lat="37.725875" lon="-119.588347"><ele>1341</ele></trkpt>
<trkpt lat="37.725611" lon="-119.587572"><ele>1357</ele></trkpt>
<trkpt lat="37.725422" lon="-119.586713"><ele>1374</ele></trkpt>
<trkpt lat="37.725300" lon="-119.585830"><ele>1390</ele></trkpt>
<trkpt lat="37.725233" lon="-119.584984"><ele>1405</ele></trkpt>
<trkpt lat="37.725208" lon="-119.584231"><ele>1420</ele></trkpt>
<trkpt lat="37.725210" lon="-119.583615"><ele>1435</ele></trkpt>
<trkpt lat="37.725222" lon="-119.583164"><ele>1449</ele></trkpt>
<trkpt lat="37.725229" lon="-119.582888"><ele>1463</ele></trkpt>
<trkpt lat="37.725216" lon="-119.582778"><ele>1476</ele></trkpt>
<trkpt lat="37.725168" lon="-119.582808"><ele>1489</ele></trkpt>
<trkpt lat="37.725074" lon="-119.582935"><ele>1501</ele></trkpt>
<trkpt lat="37.724926" lon="-119.583105"><ele>1513</ele></trkpt>
<trkpt lat="37.724719" lon="-119.583259"><ele>1524</ele></trkpt>
<trkpt lat="37.724451" lon="-119.583337"><ele>1534</ele></trkpt>
<trkpt lat="37.724125" lon="-119.583286"><ele>1543</ele></trkpt>
<trkpt lat="37.723747" lon="-119.583062"><ele>1552</ele></trkpt>
<trkpt lat="37.723327" lon="-119.582640"><ele>1560</ele></trkpt>
<trkpt lat="37.722875" lon="-119.582011"><ele>1568</ele></trkpt>
<trkpt lat="37.722408" lon="-119.581186"><ele>1574</ele></trkpt>
<trkpt lat="37.721940" lon="-119.580193"><ele>1580</ele></trkpt>
<trkpt lat="37.721491" lon="-119.579077"><ele>1586</ele></trkpt>
<trkpt lat="37.721075" lon="-119.577893"><ele>1590</ele></trkpt>
<trkpt lat="37.720709" lon="-119.576703"><ele>1594</ele></trkpt>
<trkpt lat="37.720409" lon="-119.575569"><ele>1596</ele></trkpt>
<trkpt lat="37.720185" lon="-119.574547"><ele>1598</ele></trkpt>
<trkpt lat="37.720047" lon="-119.573681"><ele>1600</ele></trkpt>
<trkpt lat="37.720000" lon="-119.573000"><ele>1600</ele></trkpt>
<trkpt lat="37.720047" lon="-119.572515"><ele>1600</ele></trkpt>
<trkpt lat="37.720185" lon="-119.572217"><ele>1598</ele></trkpt>
<trkpt lat="37.720409" lon="-119.572079"><ele>1596</ele></trkpt>
<trkpt lat="37.720709" lon="-119.572061"><ele>1594</ele></trkpt>
<trkpt lat="37.721075" lon="-119.572107"><ele>1590</ele></trkpt>
<trkpt lat="37.721491" lon="-119.572160"><ele>1586</ele></trkpt>
<trkpt lat="37.721940" lon="-119.572158"><ele>1580</ele></trkpt>
<trkpt lat="37.722408" lon="-119.572050"><ele>1574</ele></trkpt>
<trkpt lat="37.722875" lon="-119.571793"><ele>1568</ele></trkpt>
<trkpt lat="37.723327" lon="-119.571360"><ele>1560</ele></trkpt>
<trkpt lat="37.723747" lon="-119.570742"><ele>1552</ele></trkpt>
<trkpt lat="37.724125" lon="-119.569950"><ele>1543</ele></trkpt>
<trkpt lat="37.724451" lon="-119.569014"><ele>1534</ele></trkpt>
<trkpt lat="37.724719" lon="-119.567977"><ele>1524</ele></trkpt>
<trkpt lat="37.724926" lon="-119.566895"><ele>1513</ele></trkpt>
<trkpt lat="37.725074" lon="-119.565829"><ele>1501</ele></trkpt>
<trkpt lat="37.725168" lon="-119.564841"><ele>1489</ele></trkpt>
<trkpt lat="37.725216" lon="-119.563986"><ele>1476</ele></trkpt>
<trkpt lat="37.725229" lon="-119.563308"><ele>1463</ele></trkpt>
<trkpt lat="37.725222" lon="-119.562836"><ele>1449</ele></trkpt>
<trkpt lat="37.725210" lon="-119.562581"><ele>1435</ele></trkpt>
<trkpt lat="37.725208" lon="-119.562533"><ele>1420</ele></trkpt>
<trkpt lat="37.725233" lon="-119.562665"><ele>1405</ele></trkpt>
<trkpt lat="37.725300" lon="-119.562934"><ele>1390</ele></trkpt>
<trkpt lat="37.725422" lon="-119.563287"><ele>1374</ele></trkpt>
<trkpt lat="37.725611" lon="-119.563664"><ele>1357</ele></trkpt>
<trkpt lat="37.725875" lon="-119.564005"><ele>1341</ele></trkpt>
<trkpt lat="37.726219" lon="-119.564254"><ele>1324</ele></trkpt>
<trkpt lat="37.726643" lon="-119.564371"><ele>1306</ele></trkpt>
<trkpt lat="37.727146" lon="-119.564326"><ele>1289</ele></trkpt>
<trkpt lat="37.727720" lon="-119.564111"><ele>1271</ele></trkpt>
<trkpt lat="37.728357" lon="-119.563736"><ele>1254</ele></trkpt>
<trkpt lat="37.729042" lon="-119.563228"><ele>1236</ele></trkpt>
<trkpt lat="37.729762" lon="-119.562631"><ele>1218</ele></trkpt>
<trkpt lat="37.730500" lon="-119.562000"><ele>1200</ele></trkpt>
</trkseg></trk></gpx>